{
  "links" : {
    "next" : "https://api.nasa.gov/neo/rest/v1/feed?start_date=2000-06-23&end_date=2000-06-23&detailed=true&api_key=t0TVs3DtDT2H8Oy2Zy8m2eVrNsAVKAexjcZXUckd",
    "prev" : "https://api.nasa.gov/neo/rest/v1/feed?start_date=2000-06-21&end_date=2000-06-21&detailed=true&api_key=t0TVs3DtDT2H8Oy2Zy8m2eVrNsAVKAexjcZXUckd",
    "self" : "https://api.nasa.gov/neo/rest/v1/feed?start_date=2000-06-22&end_date=2000-06-22&detailed=true&api_key=t0TVs3DtDT2H8Oy2Zy8m2eVrNsAVKAexjcZXUckd"
  },
  "element_count" : 5,
  "near_earth_objects" : {
    "2000-06-22" : [ {
      "links" : {
        "self" : "https://api.nasa.gov/neo/rest/v1/neo/2345722?api_key=t0TVs3DtDT2H8Oy2Zy8m2eVrNsAVKAexjcZXUckd"
      },
      "neo_reference_id" : "2345722",
      "name" : "345722 (2007 BG29)",
      "nasa_jpl_url" : "http://ssd.jpl.nasa.gov/sbdb.cgi?sstr=2345722",
      "absolute_magnitude_h" : 18.2,
      "estimated_diameter" : {
        "kilometers" : {
          "estimated_diameter_min" : 0.6089126221,
          "estimated_diameter_max" : 1.3615700154
        },
        "meters" : {
          "estimated_diameter_min" : 608.9126221057,
          "estimated_diameter_max" : 1361.5700153859
        },
        "miles" : {
          "estimated_diameter_min" : 0.3783606449,
          "estimated_diameter_max" : 0.846040122
        },
        "feet" : {
          "estimated_diameter_min" : 1997.7448871092,
          "estimated_diameter_max" : 4467.0933692788
        }
      },
      "is_potentially_hazardous_asteroid" : false,
      "close_approach_data" : [ {
        "close_approach_date" : "2000-06-22",
        "epoch_date_close_approach" : 961657200000,
        "relative_velocity" : {
          "kilometers_per_second" : "17.4420756733",
          "kilometers_per_hour" : "62791.4724237529",
          "miles_per_hour" : "39016.1790735258"
        },
        "miss_distance" : {
          "astronomical" : "0.4538196648",
          "lunar" : "176.5358428955",
          "kilometers" : "67890456",
          "miles" : "42185172"
        },
        "orbiting_body" : "Earth"
      } ],
      "orbital_data" : {
        "orbit_id" : "50",
        "orbit_determination_date" : "2017-04-06 09:23:12",
        "orbit_uncertainty" : "1",
        "minimum_orbit_intersection" : ".0865455",
        "jupiter_tisserand_invariant" : "6.965",
        "epoch_osculation" : "2458000.5",
        "eccentricity" : ".3347521815210344",
        "semi_major_axis" : ".8325240301851713",
        "inclination" : "18.5083156822812",
        "ascending_node_longitude" : "60.98718946792383",
        "orbital_period" : "277.4556632516303",
        "perihelion_distance" : ".5538347949120017",
        "perihelion_argument" : "245.0828374038714",
        "aphelion_distance" : "1.111213265458341",
        "perihelion_time" : "2458117.091024519673",
        "mean_anomaly" : "208.722609100193",
        "mean_motion" : "1.297504602288505",
        "equinox" : "J2000"
      }
    }, {
      "links" : {
        "self" : "https://api.nasa.gov/neo/rest/v1/neo/2436030?api_key=t0TVs3DtDT2H8Oy2Zy8m2eVrNsAVKAexjcZXUckd"
      },
      "neo_reference_id" : "2436030",
      "name" : "436030 (2009 JO2)",
      "nasa_jpl_url" : "http://ssd.jpl.nasa.gov/sbdb.cgi?sstr=2436030",
      "absolute_magnitude_h" : 19.4,
      "estimated_diameter" : {
        "kilometers" : {
          "estimated_diameter_min" : 0.3503926411,
          "estimated_diameter_max" : 0.7835017643
        },
        "meters" : {
          "estimated_diameter_min" : 350.3926411083,
          "estimated_diameter_max" : 783.5017643338
        },
        "miles" : {
          "estimated_diameter_min" : 0.2177238258,
          "estimated_diameter_max" : 0.4868452748
        },
        "feet" : {
          "estimated_diameter_min" : 1149.5821926537,
          "estimated_diameter_max" : 2570.543928497
        }
      },
      "is_potentially_hazardous_asteroid" : false,
      "close_approach_data" : [ {
        "close_approach_date" : "2000-06-22",
        "epoch_date_close_approach" : 961657200000,
        "relative_velocity" : {
          "kilometers_per_second" : "11.0452650096",
          "kilometers_per_hour" : "39762.9540346115",
          "miles_per_hour" : "24707.1533000062"
        },
        "miss_distance" : {
          "astronomical" : "0.4608776511",
          "lunar" : "179.2814025879",
          "kilometers" : "68946320",
          "miles" : "42841256"
        },
        "orbiting_body" : "Earth"
      } ],
      "orbital_data" : {
        "orbit_id" : "42",
        "orbit_determination_date" : "2017-04-06 09:20:45",
        "orbit_uncertainty" : "1",
        "minimum_orbit_intersection" : ".054975",
        "jupiter_tisserand_invariant" : "6.540",
        "epoch_osculation" : "2458000.5",
        "eccentricity" : ".4782238870326821",
        "semi_major_axis" : ".8884139717785468",
        "inclination" : "19.63484850169642",
        "ascending_node_longitude" : "203.4662406372868",
        "orbital_period" : "305.8591637319883",
        "perihelion_distance" : ".4635531889004665",
        "perihelion_argument" : "239.6872797952229",
        "aphelion_distance" : "1.313274754656627",
        "perihelion_time" : "2457970.065590580084",
        "mean_anomaly" : "35.82167445135119",
        "mean_motion" : "1.177012307257379",
        "equinox" : "J2000"
      }
    }, {
      "links" : {
        "self" : "https://api.nasa.gov/neo/rest/v1/neo/3555016?api_key=t0TVs3DtDT2H8Oy2Zy8m2eVrNsAVKAexjcZXUckd"
      },
      "neo_reference_id" : "3555016",
      "name" : "(2011 AC3)",
      "nasa_jpl_url" : "http://ssd.jpl.nasa.gov/sbdb.cgi?sstr=3555016",
      "absolute_magnitude_h" : 22.4,
      "estimated_diameter" : {
        "kilometers" : {
          "estimated_diameter_min" : 0.0880146521,
          "estimated_diameter_max" : 0.1968067451
        },
        "meters" : {
          "estimated_diameter_min" : 88.0146520901,
          "estimated_diameter_max" : 196.8067450894
        },
        "miles" : {
          "estimated_diameter_min" : 0.0546897524,
          "estimated_diameter_max" : 0.122290004
        },
        "feet" : {
          "estimated_diameter_min" : 288.7619911632,
          "estimated_diameter_max" : 645.6914415591
        }
      },
      "is_potentially_hazardous_asteroid" : false,
      "close_approach_data" : [ {
        "close_approach_date" : "2000-06-22",
        "epoch_date_close_approach" : 961657200000,
        "relative_velocity" : {
          "kilometers_per_second" : "23.192848336",
          "kilometers_per_hour" : "83494.254009704",
          "miles_per_hour" : "51880.082442863"
        },
        "miss_distance" : {
          "astronomical" : "0.4822450821",
          "lunar" : "187.5933380127",
          "kilometers" : "72142840",
          "miles" : "44827480"
        },
        "orbiting_body" : "Earth"
      } ],
      "orbital_data" : {
        "orbit_id" : "16",
        "orbit_determination_date" : "2017-04-06 08:55:05",
        "orbit_uncertainty" : "1",
        "minimum_orbit_intersection" : ".0474905",
        "jupiter_tisserand_invariant" : "5.967",
        "epoch_osculation" : "2458000.5",
        "eccentricity" : ".4978206489111902",
        "semi_major_axis" : ".9867742148227755",
        "inclination" : "23.26947741726934",
        "ascending_node_longitude" : "284.7771375925228",
        "orbital_period" : "358.0346967127308",
        "perihelion_distance" : ".4955376348708713",
        "perihelion_argument" : "307.7903466785861",
        "aphelion_distance" : "1.47801079477468",
        "perihelion_time" : "2458145.434945234536",
        "mean_anomaly" : "214.2694862718943",
        "mean_motion" : "1.005489141989068",
        "equinox" : "J2000"
      }
    } ]
  }
}